CSS (TIANHE)            
1 48274U 21035A   23325.34379305  .00031593  00000+0  35124-3 0  9993
2 48274  41.4711 279.0258 0005780 195.3768 164.6896 15.62187808146408
